COSMOS 2433 (720)       
1 32275U 07052A   22362.15743773 -.00000050  00000+0  00000+0 0  9999
2 32275  66.0672 358.2419 0005223 256.0907 288.0391  2.13104205118099
COSMOS 2432 (719)       
1 32276U 07052B   22361.80953288 -.00000050  00000+0  00000+0 0  9995
2 32276  66.0813 358.3577 0011395 315.4723 269.5087  2.13103421118080
COSMOS 2434 (721)       
1 32393U 07065A   22361.85531135  .00000032  00000+0  00000+0 0  9996
2 32393  64.3572 234.8307 0003669  69.5255 133.0551  2.13103210116797
COSMOS 2436 (723)       
1 32395U 07065C   22361.65362174  .00000033  00000+0  00000+0 0  9992
2 32395  64.3660 234.8970 0016605   3.8316 179.7183  2.13102868116725
COSMOS 2456 (730)       
1 36111U 09070A   22361.72987429  .00000026  00000+0  00000+0 0  9996
2 36111  64.4075 114.4160 0001699 313.1043 316.1050  2.13099157101451
COSMOS 2457 (733)       
1 36112U 09070B   22361.58720769  .00000026  00000+0  00000+0 0  9993
2 36112  64.3915 114.2921 0006464 157.1683 131.4124  2.13101333101458
COSMOS 2460 (732)       
1 36402U 10007C   22360.54620035 -.00000048  00000+0  00000+0 0  9992
2 36402  65.9372 357.0552 0002411 271.6577 283.8182  2.13106361 99787
COSMOS 2476 (744)       
1 37867U 11064A   22361.47905164  .00000029  00000+0  00000+0 0  9992
2 37867  64.6930 115.8555 0021514 231.2562 112.6819  2.13101821 86792
COSMOS 2477 (745)       
1 37868U 11064B   22361.74056912  .00000029  00000+0  00000+0 0  9991
2 37868  64.7006 115.9133 0018840 231.5950 130.9845  2.13101627 86766
COSMOS 2475 (743)       
1 37869U 11064C   22361.66152420  .00000029  00000+0  00000+0 0  9994
2 37869  64.7070 115.9265 0022576 250.5670   9.5873  2.13101812 86763
COSMOS 2485 (747)       
1 39155U 13019A   22361.79139365  .00000029  00000+0  00000+0 0  9993
2 39155  64.8553 116.3146 0021993 227.4583  40.4912  2.13101821 75273
COSMOS 2492 (754)       
1 39620U 14012A   22361.62644618 -.00000050  00000+0  00000+0 0  9993
2 39620  65.8219 356.6722 0014414 313.6612 222.0657  2.13103271 68222
COSMOS 2500 (755)       
1 40001U 14032A   22361.64888993 -.00000050  00000+0  00000+0 0  9998
2 40001  65.7611 356.5171 0007785 221.2783 189.7734  2.13102451 66441
COSMOS 2501 (702K)      
1 40315U 14075A   22361.60188157  .00000034  00000+0  00000+0 0  9995
2 40315  63.6619 234.4141 0017357 206.9124 337.0093  2.13101392 62849
COSMOS 2514 (751)       
1 41330U 16008A   22361.34217389 -.00000050  00000+0  00000+0 0  9991
2 41330  65.5596 356.1703 0011409 224.9572 134.9678  2.13102439 53607
COSMOS 2516 (753)       
1 41554U 16032A   22360.05614272  .00000051  00000+0  00000+0 0  9995
2 41554  63.8881 234.7985 0013982 213.1087 146.8929  2.13106312 51181
COSMOS 2522 (752)       
1 42939U 17055A   22361.75643745  .00000032  00000+0  00000+0 0  9993
2 42939  64.1220 235.1914 0006228 243.6539 194.4129  2.13102147 40970
COSMOS 2527 (756)       
1 43508U 18053A   22361.59530848  .00000030  00000+0  00000+0 0  9994
2 43508  65.0184 116.3624 0008096 217.8680 128.5851  2.13102544 35251
COSMOS 2529 (757)       
1 43687U 18086A   22361.48067086  .00000034  00000+0  00000+0 0  9999
2 43687  64.3378 235.5679 0008212 271.5380 270.4527  2.13102144 32276
COSMOS 2534 (758)       
1 44299U 19030A   22361.62913326  .00000033  00000+0  00000+0 0  9991
2 44299  64.4097 235.4662 0011238 293.1866 137.0870  2.13101953 27929
COSMOS 2544 (759)       
1 44850U 19088A   22361.55412333  .00000030  00000+0  16595+1 0  9995
2 44850  65.0028 116.2108 0011488 250.1283 108.0321  2.13102297 23687
COSMOS 2545 (760)       
1 45358U 20018A   22361.51785716 -.00000052  00000+0  00000+0 0  9996
2 45358  64.8985 356.6157 0011592 251.3238 288.2617  2.13102778 21640
COSMOS 2547 (705K)      
1 46805U 20075A   22361.16147499  .00000038  00000+0  00000+0 0  9991
2 46805  64.6351 234.9631 0006024 245.6497 234.1962  2.13103018 16886
COSMOS 2557 (706K)      
1 52984U 22075A   22361.35210670 -.00000053  00000+0  10000-3 0  9994
2 52984  64.8052 358.8081 0013962 280.3009 222.9283  2.13101809  3681
COSMOS 2559 (707K)      
1 54031U 22130A   22361.87231845 -.00000054  00000+0  00000+0 0  9991
2 54031  64.7784 358.9266 0007529 233.7707 353.8447  2.13101291  1670
COSMOS 2564 (761)       
1 54377U 22161A   22361.58594159  .00000034  00000+0  00000+0 0  9993
2 54377  64.7748 234.9583 0006960 216.4620   1.5632  2.13102339   618
